sat14483
1 14483U 83111A   20046.87283170  .00000371  00000-0  24277-4 0  9999
2 14483  82.9030 252.5442 0746868   6.4202 354.5898 13.89032968798646
